{"spkid": "54136202", "covariance": {"elements": [{"label": "e", "units": null, "title": "eccentricity", "value": ".2157642066186075", "sigma": 6.57113595695684e-07, "name": "e"}, {"value": ".9098191116029974", "title": "perihelion distance", "units": "au", "name": "q", "sigma": 7.62427364396898e-07, "label": "q"}, {"title": "time of perihelion passage", "value": "2460169.304183953109", "units": "TDB", "name": "tp", "sigma": 8.89393648077743e-05, "label": "tp"}, {"sigma": 3.84509666741521e-06, "name": "om", "units": "deg", "title": "longitude of the ascending node", "value": "200.0019861368882", "label": "node"}, {"label": "peri", "units": "deg", "title": "argument of perihelion", "value": "292.7727245895025", "sigma": 0.000161016051834498, "name": "w"}, {"units": "deg", "title": "inclination", "value": "9.409795709749853", "name": "i", "sigma": 3.62411254997974e-05, "label": "i"}], "data": [["4.317982776481102E-13", "-5.010009855664091E-13", "-5.407763802201328E-11", "7.678083467289895E-14", "-1.035682281958112E-10", "9.174699279427523E-12"], ["-5.010009855664091E-13", "5.812954859812001E-13", "6.277492752659395E-11", "-8.884747765108343E-14", "1.201963958336334E-10", "-1.066983327803511E-11"], ["-5.407763802201328E-11", "6.277492752659395E-11", "7.91021061241037E-9", "5.133798049781095E-12", "1.407419451337093E-8", "-2.064399533715145E-9"], ["7.678083467289895E-14", "-8.884747765108343E-14", "5.133798049781095E-12", "1.478476838176756E-11", "-1.857381265982916E-11", "1.368175692220365E-11"], ["-1.035682281958112E-10", "1.201963958336334E-10", "1.407419451337093E-8", "-1.857381265982916E-11", "2.592616894836966E-8", "-3.112053502324907E-9"], ["9.174699279427523E-12", "-1.066983327803511E-11", "-2.064399533715145E-9", "1.368175692220365E-11", "-3.112053502324907E-9", "1.313419177492062E-9"]], "labels": ["e", "q", "tp", "node", "peri", "i"], "epoch": "2459963.5"}, "elements": [{"name": "e", "sigma": "6.5717E-7", "units": null, "value": ".2145000051649532", "title": "eccentricity", "label": "e"}, {"sigma": "1.0174E-8", "name": "a", "units": "au", "value": "1.159146243163235", "title": "semi-major axis", "label": "a"}, {"units": "au", "title": "perihelion distance", "value": ".9105093680177847", "sigma": "7.6653E-7", "name": "q", "label": "q"}, {"label": "i", "units": "deg", "value": "9.47819014420377", "title": "inclination; angle with respect to x-y ecliptic plane", "sigma": "3.5653E-5", "name": "i"}, {"sigma": "4.0586E-6", "name": "om", "value": "199.8930112678799", "title": "longitude of the ascending node", "units": "deg", "label": "node"}, {"sigma": ".00016355", "name": "w", "units": "deg", "title": "argument of perihelion", "value": "292.8241047236975", "label": "peri"}, {"label": "M", "sigma": "7.1442E-5", "name": "ma", "units": "deg", "title": "mean anomaly", "value": "93.5424183079318"}, {"name": "tp", "sigma": "8.997E-5", "units": "TDB", "title": "time of perihelion passage", "value": "2461082.056326784849", "label": "tp"}, {"units": "d", "value": "455.8330127524472", "title": "sidereal orbital period", "name": "per", "sigma": "6.0016E-6", "label": "period"}, {"value": ".7897628954652041", "title": "mean motion", "units": "deg/d", "sigma": "1.0398E-8", "name": "n", "label": "n"}, {"label": "Q", "title": "aphelion distance", "value": "1.407783118308685", "units": "au", "sigma": "1.2357E-8", "name": "ad"}], "epoch": "2461200.5"}